$$SOE
2460154.500000000, A.D. 2023-Jul-29 00:00:00.0000, 1.566451195894428E+08, 5.116152975323003E+08, 3.524465144064057E+07,
2460161.500000000, A.D. 2023-Aug-05 00:00:00.0000, 1.478646234985389E+08, 5.148381834334193E+08, 3.683823021925464E+07,
2460168.500000000, A.D. 2023-Aug-12 00:00:00.0000, 1.390378483743449E+08, 5.178995291619225E+08, 3.842023873767555E+07,
2460175.500000000, A.D. 2023-Aug-19 00:00:00.0000, 1.301677275799968E+08, 5.207990048092561E+08, 3.999022756773874E+07,
2460182.500000000, A.D. 2023-Aug-26 00:00:00.0000, 1.212571855267216E+08, 5.235363326557835E+08, 4.154775446507469E+07,
2460189.500000000, A.D. 2023-Sep-02 00:00:00.0000, 1.123091368184469E+08, 5.261112864599153E+08, 4.309238440498140E+07,
2460196.500000000, A.D. 2023-Sep-09 00:00:00.0000, 1.033264854403178E+08, 5.285236906297387E+08, 4.462368960211626E+07,
2460203.500000000, A.D. 2023-Sep-16 00:00:00.0000, 9.431212415891504E+07, 5.307734192202810E+08, 4.614124949408227E+07,
2460210.500000000, A.D. 2023-Sep-23 00:00:00.0000, 8.526893454993899E+07, 5.328603950445929E+08, 4.764465067447290E+07,
2460217.500000000, A.D. 2023-Sep-30 00:00:00.0000, 7.619978731355068E+07, 5.347845900910284E+08, 4.913348690418592E+07,
2460224.500000000, A.D. 2023-Oct-07 00:00:00.0000, 6.710754052379819E+07, 5.365460267044655E+08, 5.060735937277809E+07,
2460231.500000000, A.D. 2023-Oct-14 00:00:00.0000, 5.799503685098936E+07, 5.381447762179298E+08, 5.206587684398642E+07,
2460238.500000000, A.D. 2023-Oct-21 00:00:00.0000, 4.886510298448819E+07, 5.395809566390566E+08, 5.350865552080068E+07,
2460245.500000000, A.D. 2023-Oct-28 00:00:00.0000, 3.972054983194932E+07, 5.408547316529642E+08, 5.493531894584307E+07,
2460252.500000000, A.D. 2023-Nov-04 00:00:00.0000, 3.056417224490992E+07, 5.419663101707851E+08, 5.634549798896307E+07,
2460259.500000000, A.D. 2023-Nov-11 00:00:00.0000, 2.139874844737318E+07, 5.429159458235140E+08, 5.773883085698324E+07,
2460266.500000000, A.D. 2023-Nov-18 00:00:00.0000, 1.222703938558901E+07, 5.437039363369881E+08, 5.911496310054287E+07,
2460273.500000000, A.D. 2023-Nov-25 00:00:00.0000, 3.051788070545475E+06, 5.443306228113105E+08, 6.047354761363658E+07,
2460280.500000000, A.D. 2023-Dec-02 00:00:00.0000, -6.124281059658879E+06, 5.447963888947457E+08, 6.181424462283263E+07,
2460287.500000000, A.D. 2023-Dec-09 00:00:00.0000, -1.529846268031662E+07, 5.451016597944757E+08, 6.313672165464571E+07,
2460294.500000000, A.D. 2023-Dec-16 00:00:00.0000, -2.446807073626198E+07, 5.452469011377894E+08, 6.444065345600650E+07,
2460301.500000000, A.D. 2023-Dec-23 00:00:00.0000, -3.363043786554386E+07, 5.452326183719838E+08, 6.572572189218813E+07,
2460308.500000000, A.D. 2023-Dec-30 00:00:00.0000, -4.278291543090837E+07, 5.450593577529786E+08, 6.699161603086063E+07,
2460315.500000000, A.D. 2024-Jan-06 00:00:00.0000, -5.192287593140265E+07, 5.447277065612841E+08, 6.823803238160971E+07,
2460322.500000000, A.D. 2024-Jan-13 00:00:00.0000, -6.104771462269475E+07, 5.442382907371359E+08, 6.946467485191849E+07,
2460329.500000000, A.D. 2024-Jan-20 00:00:00.0000, -7.015484912427522E+07, 5.435917730204610E+08, 7.067125455948994E+07,
2460336.500000000, A.D. 2024-Jan-27 00:00:00.0000, -7.924171904273143E+07, 5.427888522490540E+08, 7.185748974025297E+07,
2460343.500000000, A.D. 2024-Feb-03 00:00:00.0000, -8.830578603991047E+07, 5.418302628665097E+08, 7.302310571368214E+07,
2460350.500000000, A.D. 2024-Feb-10 00:00:00.0000, -9.734453406931393E+07, 5.407167743489859E+08, 7.416783485613313E+07,
2460357.500000000, A.D. 2024-Feb-17 00:00:00.0000, -1.063554696426731E+08, 5.394491905590857E+08, 7.529141657011488E+07,
2460364.500000000, A.D. 2024-Feb-24 00:00:00.0000, -1.153361220913146E+08, 5.380283490419842E+08, 7.639359724741656E+07,
2460371.500000000, A.D. 2024-Mar-02 00:00:00.0000, -1.242840437934683E+08, 5.364551202315046E+08, 7.747413022075546E+07,
2460378.500000000, A.D. 2024-Mar-09 00:00:00.0000, -1.331968102292389E+08, 5.347304065033922E+08, 7.853277568608844E+07,
2460385.500000000, A.D. 2024-Mar-16 00:00:00.0000, -1.420720194685895E+08, 5.328551412731267E+08, 7.956930057549328E+07,
2460392.500000000, A.D. 2024-Mar-23 00:00:00.0000, -1.509072911967095E+08, 5.308302892477340E+08, 8.058347848086891E+07,
2460399.500000000, A.D. 2024-Mar-30 00:00:00.0000, -1.597002675182403E+08, 5.286568478055152E+08, 8.157508983196458E+07,
2460406.500000000, A.D. 2024-Apr-06 00:00:00.0000, -1.684486152840801E+08, 5.263358461354344E+08, 8.254392202991849E+07,
2460413.500000000, A.D. 2024-Apr-13 00:00:00.0000, -1.771500263906747E+08, 5.238683429715141E+08, 8.348976927889565E+07,
2460420.500000000, A.D. 2024-Apr-20 00:00:00.0000, -1.858022170052922E+08, 5.212554255997599E+08, 8.441243242220399E+07,
2460427.500000000, A.D. 2024-Apr-27 00:00:00.0000, -1.944029272345799E+08, 5.184982095769433E+08, 8.531171887634057E+07,
2460434.500000000, A.D. 2024-May-04 00:00:00.0000, -2.029499211487464E+08, 5.155978384577734E+08, 8.618744259750393E+07,
2460441.500000000, A.D. 2024-May-11 00:00:00.0000, -2.114409869235769E+08, 5.125554834286687E+08, 8.703942405054173E+07,
2460448.500000000, A.D. 2024-May-18 00:00:00.0000, -2.198739370189137E+08, 5.093723428699999E+08, 8.786749017480850E+07,
2460455.500000000, A.D. 2024-May-25 00:00:00.0000, -2.282466083694827E+08, 5.060496418400705E+08, 8.867147434436706E+07,
2460462.500000000, A.D. 2024-Jun-01 00:00:00.0000, -2.365568625287685E+08, 5.025886314238288E+08, 8.945121631267625E+07,
2460469.500000000, A.D. 2024-Jun-08 00:00:00.0000, -2.448025855200793E+08, 4.989905879237443E+08, 9.020656211764187E+07,
2460476.500000000, A.D. 2024-Jun-15 00:00:00.0000, -2.529816869957989E+08, 4.952568124383117E+08, 9.093736395530316E+07,
2460483.500000000, A.D. 2024-Jun-22 00:00:00.0000, -2.610920997105836E+08, 4.913886320040041E+08, 9.164348021080998E+07,
2460490.500000000, A.D. 2024-Jun-29 00:00:00.0000, -2.691317814298978E+08, 4.873874004805521E+08, 9.232477569278333E+07,
2460497.500000000, A.D. 2024-Jul-06 00:00:00.0000, -2.770987166279801E+08, 4.832544967073384E+08, 9.298112162636915E+07,
2460504.500000000, A.D. 2024-Jul-13 00:00:00.0000, -2.849909160265966E+08, 4.789913227534351E+08, 9.361239545689255E+07,
2460511.500000000, A.D. 2024-Jul-20 00:00:00.0000, -2.928064159615297E+08, 4.745993034099895E+08, 9.421848074032924E+07,
2460518.500000000, A.D. 2024-Jul-27 00:00:00.0000, -3.005432782335362E+08, 4.700798859656658E+08, 9.479926710248777E+07,
2460525.500000000, A.D. 2024-Aug-03 00:00:00.0000, -3.081995901715861E+08, 4.654345398902763E+08, 9.535465021131361E+07,
2460532.500000000, A.D. 2024-Aug-10 00:00:00.0000, -3.157734647433532E+08, 4.606647564226061E+08, 9.588453174682370E+07,
2460539.500000000, A.D. 2024-Aug-17 00:00:00.0000, -3.232630406661202E+08, 4.557720480848569E+08, 9.638881936610523E+07,
2460546.500000000, A.D. 2024-Aug-24 00:00:00.0000, -3.306664824904782E+08, 4.507579481020687E+08, 9.686742665886855E+07,
2460553.500000000, A.D. 2024-Aug-31 00:00:00.0000, -3.379819805412898E+08, 4.456240096653859E+08, 9.732027307768166E+07,
2460560.500000000, A.D. 2024-Sep-07 00:00:00.0000, -3.452077503505158E+08, 4.403718051656106E+08, 9.774728381938538E+07,
2460567.500000000, A.D. 2024-Sep-14 00:00:00.0000, -3.523420314970212E+08, 4.350029263928604E+08, 9.814838973099178E+07,
2460574.500000000, A.D. 2024-Sep-21 00:00:00.0000, -3.593830878828749E+08, 4.295189861152769E+08, 9.852352745975998E+07,
2460581.500000000, A.D. 2024-Sep-28 00:00:00.0000, -3.663292099335927E+08, 4.239216178096268E+08, 9.887263962825313E+07,
2460588.500000000, A.D. 2024-Oct-05 00:00:00.0000, -3.731787150519809E+08, 4.182124735445808E+08, 9.919567469752154E+07,
2460595.500000000, A.D. 2024-Oct-12 00:00:00.0000, -3.799299466869155E+08, 4.123932229959298E+08, 9.949258679488322E+07,
2460602.500000000, A.D. 2024-Oct-19 00:00:00.0000, -3.865812737689533E+08, 4.064655533233916E+08, 9.976333564491643E+07,
2460609.500000000, A.D. 2024-Oct-26 00:00:00.0000, -3.931310905453011E+08, 4.004311691080091E+08, 1.000078865411884E+08,
2460616.500000000, A.D. 2024-Nov-02 00:00:00.0000, -3.995778165567598E+08, 3.942917922017566E+08, 1.002262103229716E+08,
2460623.500000000, A.D. 2024-Nov-09 00:00:00.0000, -4.059198966601001E+08, 3.880491615100149E+08, 1.004182833497952E+08,
2460630.500000000, A.D. 2024-Nov-16 00:00:00.0000, -4.121558010700629E+08, 3.817050327072177E+08, 1.005840874715285E+08,
2460637.500000000, A.D. 2024-Nov-23 00:00:00.0000, -4.182840253741519E+08, 3.752611778358230E+08, 1.007236099856908E+08,
2460644.500000000, A.D. 2024-Nov-30 00:00:00.0000, -4.243030903120035E+08, 3.687193847459674E+08, 1.008368435594794E+08,
2460651.500000000, A.D. 2024-Dec-07 00:00:00.0000, -4.302115409000096E+08, 3.620814567963091E+08, 1.009237861125155E+08,
2460658.500000000, A.D. 2024-Dec-14 00:00:00.0000, -4.360079455902494E+08, 3.553492140399119E+08, 1.009844408236649E+08,
2460665.500000000, A.D. 2024-Dec-21 00:00:00.0000, -4.416908977830453E+08, 3.485244946547945E+08, 1.010188163735342E+08,
2460672.500000000, A.D. 2024-Dec-28 00:00:00.0000, -4.472590177204868E+08, 3.416091536522721E+08, 1.010269269994530E+08,
2460679.500000000, A.D. 2025-Jan-04 00:00:00.0000, -4.527109521630035E+08, 3.346050612384677E+08, 1.010087923188938E+08,
2460686.500000000, A.D. 2025-Jan-11 00:00:00.0000, -4.580453736708591E+08, 3.275141024881285E+08, 1.009644372242793E+08,
2460693.500000000, A.D. 2025-Jan-18 00:00:00.0000, -4.632609804082825E+08, 3.203381774122528E+08, 1.008938918586559E+08,
2460700.500000000, A.D. 2025-Jan-25 00:00:00.0000, -4.683564962268503E+08, 3.130792009452381E+08, 1.007971916114696E+08,
2460707.500000000, A.D. 2025-Feb-01 00:00:00.0000, -4.733306708385146E+08, 3.057391028213766E+08, 1.006743771148638E+08,
2460714.500000000, A.D. 2025-Feb-08 00:00:00.0000, -4.781822800197870E+08, 2.983198273602432E+08, 1.005254942369671E+08,
2460721.500000000, A.D. 2025-Feb-15 00:00:00.0000, -4.829101258181331E+08, 2.908233331408577E+08, 1.003505940680419E+08,
$$EOE